{"norad_cat_id":"41228","object_name":"NOAA 16 DEB","object_id":"2000-055EH","object_type":"DEBRIS","country_code":"US","epoch":"2026-05-30T04:44:29.707584","creation_date":"2026-05-30T07:26:56","launch_date":"2000-09-21","decay_date":null,"inclination":98.7219,"eccentricity":0.0019224,"mean_motion":14.31320681,"period":100.606,"semimajor_axis":7165.457,"apoapsis":801.097,"periapsis":773.547,"tle_line0":"0 NOAA 16 DEB","tle_line1":"1 41228U 00055EH  26150.19756606  .00006245  00000-0  23690-2 0  9990","tle_line2":"2 41228  98.7219 235.3235 0019224  84.6808 275.6567 14.31320681540398","fetched_at":"2026-05-30T16:18:06.042337+00:00"}
{"norad_cat_id":"56712","object_name":"ONEWEB-0676","object_id":"2023-068C","object_type":"PAYLOAD","country_code":"UK","epoch":"2026-05-30T04:44:29.328288","creation_date":"2026-05-30T07:36:53","launch_date":"2023-05-20","decay_date":null,"inclination":87.9106,"eccentricity":0.0002235,"mean_motion":13.16595189,"period":109.373,"semimajor_axis":7575.89,"apoapsis":1199.448,"periapsis":1196.062,"tle_line0":"0 ONEWEB-0676","tle_line1":"1 56712U 23068C   26150.19756167  .00000034  00000-0  55693-4 0  9995","tle_line2":"2 56712  87.9106 232.3496 0002235  92.7625 267.3762 13.16595189149337","fetched_at":"2026-05-30T16:18:06.042337+00:00"}
{"norad_cat_id":"49383","object_name":"YAOGAN-32 2A","object_id":"2021-099A","object_type":"PAYLOAD","country_code":"PRC","epoch":"2026-05-30T04:44:28.561056","creation_date":"2026-05-30T07:36:53","launch_date":"2021-11-03","decay_date":null,"inclination":98.2447,"eccentricity":1.92e-05,"mean_motion":14.6418123,"period":98.348,"semimajor_axis":7057.842,"apoapsis":679.843,"periapsis":679.572,"tle_line0":"0 YAOGAN-32 2A","tle_line1":"1 49383U 21099A   26150.19755279  .00000950  00000-0  18970-3 0  9999","tle_line2":"2 49383  98.2447 283.9853 0000192 115.0026 245.1197 14.64181230243736","fetched_at":"2026-05-30T16:18:06.042337+00:00"}
{"norad_cat_id":"30299","object_name":"FENGYUN 1C DEB","object_id":"1999-025ZL","object_type":"DEBRIS","country_code":"PRC","epoch":"2026-05-30T04:44:27.716064","creation_date":"2026-05-30T07:46:57","launch_date":"1999-05-10","decay_date":null,"inclination":99.0823,"eccentricity":0.0102355,"mean_motion":14.08641443,"period":102.226,"semimajor_axis":7242.161,"apoapsis":938.154,"periapsis":789.899,"tle_line0":"0 FENGYUN 1C DEB","tle_line1":"1 30299U 99025ZL  26150.19754301  .00002724  00000-0  15343-2 0  9995","tle_line2":"2 30299  99.0823 228.6181 0102355 255.9297 122.5568 14.08641443986613","fetched_at":"2026-05-30T16:18:06.042337+00:00"}
{"norad_cat_id":"63604","object_name":"SHIYAN 27F","object_id":"2025-078F","object_type":"PAYLOAD","country_code":"PRC","epoch":"2026-05-30T04:44:27.392928","creation_date":"2026-05-30T07:46:57","launch_date":"2025-04-18","decay_date":null,"inclination":99.6899,"eccentricity":0.0001238,"mean_motion":13.57239971,"period":106.098,"semimajor_axis":7423.877,"apoapsis":1046.661,"periapsis":1044.823,"tle_line0":"0 SHIYAN 27F","tle_line1":"1 63604U 25078F   26150.19753927  .00000017  00000-0  85442-4 0  9993","tle_line2":"2 63604  99.6899 157.6815 0001238  91.1155 269.0125 13.57239971 55091","fetched_at":"2026-05-30T16:18:06.042337+00:00"}
{"norad_cat_id":"46809","object_name":"YAOGAN-30 W","object_id":"2020-076C","object_type":"PAYLOAD","country_code":"PRC","epoch":"2026-05-30T04:44:27.150144","creation_date":"2026-05-30T07:36:53","launch_date":"2020-10-26","decay_date":null,"inclination":34.9952,"eccentricity":0.0007231,"mean_motion":15.02592037,"period":95.834,"semimajor_axis":6937.044,"apoapsis":563.925,"periapsis":553.893,"tle_line0":"0 YAOGAN-30 W","tle_line1":"1 46809U 20076C   26150.19753646  .00003790  00000-0  28092-3 0  9990","tle_line2":"2 46809  34.9952 200.5175 0007231 271.7797  88.2083 15.02592037305432","fetched_at":"2026-05-30T16:18:06.042337+00:00"}
{"norad_cat_id":"57901","object_name":"STARLINK-30472","object_id":"2023-146L","object_type":"PAYLOAD","country_code":"US","epoch":"2026-05-30T04:44:21.554880","creation_date":"2026-05-30T07:36:53","launch_date":"2023-09-20","decay_date":null,"inclination":42.9969,"eccentricity":7.99e-05,"mean_motion":15.27592854,"period":94.266,"semimajor_axis":6861.148,"apoapsis":483.561,"periapsis":482.464,"tle_line0":"0 STARLINK-30472","tle_line1":"1 57901U 23146L   26150.19747170 -.00007435  00000-0 -26083-3 0  9991","tle_line2":"2 57901  42.9969 210.3204 0000799 271.1519  88.9241 15.27592854148504","fetched_at":"2026-05-30T16:18:06.042337+00:00"}
{"norad_cat_id":"29798","object_name":"FENGYUN 1C DEB","object_id":"1999-025CQ","object_type":"DEBRIS","country_code":"PRC","epoch":"2026-05-30T04:44:20.817024","creation_date":"2026-05-30T07:46:57","launch_date":"1999-05-10","decay_date":null,"inclination":99.285,"eccentricity":0.0108387,"mean_motion":14.00245939,"period":102.839,"semimajor_axis":7271.081,"apoapsis":971.755,"periapsis":814.137,"tle_line0":"0 FENGYUN 1C DEB","tle_line1":"1 29798U 99025CQ  26150.19746316  .00002906  00000-0  18983-2 0  9999","tle_line2":"2 29798  99.2850 221.6824 0108387 172.5065 210.3569 14.00245939982820","fetched_at":"2026-05-30T16:18:06.042337+00:00"}
{"norad_cat_id":"64576","object_name":"IRIDE-MS2-HEO-6","object_id":"2025-135BA","object_type":"PAYLOAD","country_code":"IT","epoch":"2026-05-30T04:44:18.398688","creation_date":"2026-05-30T07:46:57","launch_date":"2025-06-23","decay_date":null,"inclination":97.7708,"eccentricity":0.0002143,"mean_motion":14.9189641,"period":96.521,"semimajor_axis":6970.16,"apoapsis":593.518,"periapsis":590.531,"tle_line0":"0 IRIDE-MS2-HEO-6","tle_line1":"1 64576U 25135BA  26150.19743517  .00002618  00000-0  26446-3 0  9997","tle_line2":"2 64576  97.7708 264.6497 0002143  68.5754 291.5693 14.91896410 51207","fetched_at":"2026-05-30T16:18:06.042337+00:00"}
{"norad_cat_id":"18710","object_name":"SL-8 R/B","object_id":"1987-106B","object_type":"ROCKET BODY","country_code":"CIS","epoch":"2026-05-30T04:44:18.315744","creation_date":"2026-05-30T07:36:53","launch_date":"1987-12-23","decay_date":null,"inclination":82.9135,"eccentricity":0.0022338,"mean_motion":13.76307449,"period":104.628,"semimajor_axis":7355.15,"apoapsis":993.445,"periapsis":960.585,"tle_line0":"0 SL-8 R/B","tle_line1":"1 18710U 87106B   26150.19743421  .00000074  00000-0  60218-4 0  9996","tle_line2":"2 18710  82.9135  49.8404 0022338 321.7864 202.2567 13.76307449929665","fetched_at":"2026-05-30T16:18:06.042337+00:00"}
{"norad_cat_id":"58715","object_name":"STARLINK-31102","object_id":"2024-002L","object_type":"PAYLOAD","country_code":"US","epoch":"2026-05-30T04:44:17.113056","creation_date":"2026-05-30T07:36:53","launch_date":"2024-01-03","decay_date":null,"inclination":53.1611,"eccentricity":0.0001188,"mean_motion":15.33554085,"period":93.9,"semimajor_axis":6843.356,"apoapsis":466.034,"periapsis":464.408,"tle_line0":"0 STARLINK-31102","tle_line1":"1 58715U 24002L   26150.19742029 -.00000892  00000-0 -15803-4 0  9994","tle_line2":"2 58715  53.1611 211.3961 0001188  88.3023 271.8115 15.33554085134495","fetched_at":"2026-05-30T16:18:06.042337+00:00"}
{"norad_cat_id":"58307","object_name":"FLOCK 4Q 23","object_id":"2023-174BD","object_type":"PAYLOAD","country_code":"US","epoch":"2026-05-30T04:44:16.809792","creation_date":"2026-05-30T07:46:57","launch_date":"2023-11-11","decay_date":null,"inclination":97.392,"eccentricity":0.0008168,"mean_motion":15.6915426,"period":91.769,"semimajor_axis":6739.455,"apoapsis":366.824,"periapsis":355.815,"tle_line0":"0 FLOCK 4Q 23","tle_line1":"1 58307U 23174BD  26150.19741678  .00232095  00000-0  19496-2 0  9999","tle_line2":"2 58307  97.3920 244.1368 0008168 218.0745 141.9940 15.69154260143143","fetched_at":"2026-05-30T16:18:06.042337+00:00"}
{"norad_cat_id":"60045","object_name":"STARLINK-11116","object_id":"2024-112H","object_type":"PAYLOAD","country_code":"US","epoch":"2026-05-30T04:44:14.241120","creation_date":"2026-05-30T07:36:53","launch_date":"2024-06-08","decay_date":null,"inclination":53.1575,"eccentricity":0.0001156,"mean_motion":15.69715009,"period":91.736,"semimajor_axis":6737.849,"apoapsis":360.493,"periapsis":358.936,"tle_line0":"0 STARLINK-11116","tle_line1":"1 60045U 24112H   26150.19738705  .00000922  00000-0  12467-4 0  9996","tle_line2":"2 60045  53.1575 224.3954 0001156  64.6819 295.4319 15.69715009113785","fetched_at":"2026-05-30T16:18:06.042337+00:00"}
{"norad_cat_id":"49384","object_name":"YAOGAN-32 2B","object_id":"2021-099B","object_type":"PAYLOAD","country_code":"PRC","epoch":"2026-05-30T04:44:13.883424","creation_date":"2026-05-30T07:36:53","launch_date":"2021-11-03","decay_date":null,"inclination":98.2442,"eccentricity":8.82e-05,"mean_motion":14.64178698,"period":98.349,"semimajor_axis":7057.85,"apoapsis":680.338,"periapsis":679.093,"tle_line0":"0 YAOGAN-32 2B","tle_line1":"1 49384U 21099B   26150.19738291  .00000927  00000-0  18536-3 0  9997","tle_line2":"2 49384  98.2442 283.9961 0000882  81.6005 278.5297 14.64178698243738","fetched_at":"2026-05-30T16:18:06.042337+00:00"}
{"norad_cat_id":"21875","object_name":"COSMOS 2180","object_id":"1992-008A","object_type":"PAYLOAD","country_code":"CIS","epoch":"2026-05-30T04:44:13.212960","creation_date":"2026-05-30T07:36:53","launch_date":"1992-02-17","decay_date":null,"inclination":82.9276,"eccentricity":0.0037969,"mean_motion":13.73962452,"period":104.806,"semimajor_axis":7363.517,"apoapsis":1013.34,"periapsis":957.423,"tle_line0":"0 COSMOS 2180","tle_line1":"1 21875U 92008A   26150.19737515  .00000059  00000-0  46930-4 0  9994","tle_line2":"2 21875  82.9276 234.8349 0037969  23.5861   4.4117 13.73962452718354","fetched_at":"2026-05-30T16:18:06.042337+00:00"}
